{"type": "FeatureCollection", "features": [ {"type": "Feature", "properties": {"norad_id": 51444, "name": "CSG-2", "group": "resource", "lat": 21.770308312246044, "lon": -18.695096718182064, "alt_km": 621.9708579938069, "timestamp": "2025-12-02T15:49:06.840793+00:00", "meta": {"OBJECT_NAME": "CSG-2", "OBJECT_ID": "2022-008A", "EPOCH": "2025-12-02T11:52:05.028960", "MEAN_MOTION": 14.82147761, "ECCENTRICITY": 0.0001509, "INCLINATION": 97.8811, "RA_OF_ASC_NODE": 157.9716, "ARG_OF_PERICENTER": 90.656, "MEAN_ANOMALY": 269.4826, "EPHEMERIS_TYPE": 0, "CLASSIFICATION_TYPE": "U", "NORAD_CAT_ID": 51444, "ELEMENT_SET_NO": 999, "REV_AT_EPOCH": 20745, "BSTAR": 9.0927e-05, "MEAN_MOTION_DOT": 6.72e-06, "MEAN_MOTION_DDOT": 0}, "tle": {"line1": "1 51444U 22008A   25336.49450265  .00000672  00000+0  90927-4 0  9999", "line2": "2 51444  97.8811 157.9716 0001509  90.6560 269.4826 14.82147761207457"}}, "geometry": {"type": "Point", "coordinates": [-18.695096718182064, 21.770308312246044]}}, {"type": "Feature", "properties": {"norad_id": 52912, "name": "GAOFEN-12 03", "group": "resource", "lat": 12.316704820450969, "lon": 45.966501889856495, "alt_km": 632.0080883271294, "timestamp": "2025-12-02T15:49:06.840803+00:00", "meta": {"OBJECT_NAME": "GAOFEN-12 03", "OBJECT_ID": "2022-069A", "EPOCH": "2025-12-02T06:56:56.312160", "MEAN_MOTION": 14.79567846, "ECCENTRICITY": 0.00023305, "INCLINATION": 97.8486, "RA_OF_ASC_NODE": 223.8797, "ARG_OF_PERICENTER": 77.2481, "MEAN_ANOMALY": 282.8991, "EPHEMERIS_TYPE": 0, "CLASSIFICATION_TYPE": "U", "NORAD_CAT_ID": 52912, "ELEMENT_SET_NO": 999, "REV_AT_EPOCH": 18549, "BSTAR": 0.00022301446, "MEAN_MOTION_DOT": 1.619e-05, "MEAN_MOTION_DDOT": 0}, "tle": {"line1": "1 52912U 22069A   25336.28954065  .00001619  00000+0  22301-3 0  9993", "line2": "2 52912  97.8486 223.8797 0002330  77.2481 282.8991 14.79567846185491"}}, "geometry": {"type": "Point", "coordinates": [45.966501889856495, 12.316704820450969]}}, {"type": "Feature", "properties": {"norad_id": 54754, "name": "SWOT", "group": "resource", "lat": 41.91052418257615, "lon": 109.21916183940468, "alt_km": 889.3856384293194, "timestamp": "2025-12-02T15:49:06.840813+00:00", "meta": {"OBJECT_NAME": "SWOT", "OBJECT_ID": "2022-173A", "EPOCH": "2025-12-02T06:35:35.160000", "MEAN_MOTION": 14.00172188, "ECCENTRICITY": 2.96e-05, "INCLINATION": 77.6099, "RA_OF_ASC_NODE": 301.1174, "ARG_OF_PERICENTER": 143.0185, "MEAN_ANOMALY": 217.0987, "EPHEMERIS_TYPE": 0, "CLASSIFICATION_TYPE": "U", "NORAD_CAT_ID": 54754, "ELEMENT_SET_NO": 999, "REV_AT_EPOCH": 15159, "BSTAR": 4.0920352e-05, "MEAN_MOTION_DOT": 5.8e-07, "MEAN_MOTION_DDOT": 0}, "tle": {"line1": "1 54754U 22173A   25336.27471250  .00000058  00000+0  40920-4 0  9998", "line2": "2 54754  77.6099 301.1174 0000296 143.0185 217.0987 14.00172188151598"}}, "geometry": {"type": "Point", "coordinates": [109.21916183940468, 41.91052418257615]}}, {"type": "Feature", "properties": {"norad_id": 57654, "name": "GAOFEN-12 04", "group": "resource", "lat": -26.03021591135931, "lon": -103.53602666489957, "alt_km": 636.2480748849803, "timestamp": "2025-12-02T15:49:06.840823+00:00", "meta": {"OBJECT_NAME": "GAOFEN-12 04", "OBJECT_ID": "2023-123A", "EPOCH": "2025-12-02T07:49:19.918272", "MEAN_MOTION": 14.79649223, "ECCENTRICITY": 0.00014761, "INCLINATION": 97.9112, "RA_OF_ASC_NODE": 252.2419, "ARG_OF_PERICENTER": 71.5775, "MEAN_ANOMALY": 288.5597, "EPHEMERIS_TYPE": 0, "CLASSIFICATION_TYPE": "U", "NORAD_CAT_ID": 57654, "ELEMENT_SET_NO": 999, "REV_AT_EPOCH": 12351, "BSTAR": 0.0002701887, "MEAN_MOTION_DOT": 1.975e-05, "MEAN_MOTION_DDOT": 0}, "tle": {"line1": "1 57654U 23123A   25336.32592498  .00001975  00000+0  27019-3 0  9992", "line2": "2 57654  97.9112 252.2419 0001476  71.5775 288.5597 14.79649223123516"}}, "geometry": {"type": "Point", "coordinates": [-103.53602666489957, -26.03021591135931]}}, {"type": "Feature", "properties": {"norad_id": 59065, "name": "PARS 1", "group": "resource", "lat": -43.92582441597508, "lon": -45.36546659614299, "alt_km": 458.1483460262798, "timestamp": "2025-12-02T15:49:06.840834+00:00", "meta": {"OBJECT_NAME": "PARS 1", "OBJECT_ID": "2024-039Q", "EPOCH": "2025-12-02T06:39:29.728224", "MEAN_MOTION": 15.40616893, "ECCENTRICITY": 0.00126428, "INCLINATION": 97.4616, "RA_OF_ASC_NODE": 306.9927, "ARG_OF_PERICENTER": 102.921, "MEAN_ANOMALY": 257.3449, "EPHEMERIS_TYPE": 0, "CLASSIFICATION_TYPE": "U", "NORAD_CAT_ID": 59065, "ELEMENT_SET_NO": 999, "REV_AT_EPOCH": 9827, "BSTAR": 0.00035565234, "MEAN_MOTION_DOT": 0.00014443, "MEAN_MOTION_DDOT": 0}, "tle": {"line1": "1 59065U 24039Q   25336.27742741  .00014443  00000+0  35565-3 0  9998", "line2": "2 59065  97.4616 306.9927 0012642 102.9210 257.3449 15.40616893 98279"}}, "geometry": {"type": "Point", "coordinates": [-45.36546659614299, -43.92582441597508]}}, {"type": "Feature", "properties": {"norad_id": 59371, "name": "RESURS-P 4", "group": "resource", "lat": 55.42980396248035, "lon": -87.4522995302007, "alt_km": 463.207630025232, "timestamp": "2025-12-02T15:49:06.840844+00:00", "meta": {"OBJECT_NAME": "RESURS-P 4", "OBJECT_ID": "2024-061A", "EPOCH": "2025-12-02T07:44:11.050368", "MEAN_MOTION": 15.31953797, "ECCENTRICITY": 0.00022472, "INCLINATION": 97.2524, "RA_OF_ASC_NODE": 282.8679, "ARG_OF_PERICENTER": 55.6053, "MEAN_ANOMALY": 304.5401, "EPHEMERIS_TYPE": 0, "CLASSIFICATION_TYPE": "U", "NORAD_CAT_ID": 59371, "ELEMENT_SET_NO": 999, "REV_AT_EPOCH": 9361, "BSTAR": 0.00017751045, "MEAN_MOTION_DOT": 5.4e-05, "MEAN_MOTION_DDOT": 0}, "tle": {"line1": "1 59371U 24061A   25336.32235012  .00005400  00000+0  17751-3 0  9997", "line2": "2 59371  97.2524 282.8679 0002247  55.6053 304.5401 15.31953797 93613"}}, "geometry": {"type": "Point", "coordinates": [-87.4522995302007, 55.42980396248035]}}, {"type": "Feature", "properties": {"norad_id": 59625, "name": "LEGION 1", "group": "resource", "lat": 52.21019076034757, "lon": -118.80250417516542, "alt_km": 514.2956431294315, "timestamp": "2025-12-02T15:49:06.840854+00:00", "meta": {"OBJECT_NAME": "LEGION 1", "OBJECT_ID": "2024-081A", "EPOCH": "2025-12-02T05:45:26.972064", "MEAN_MOTION": 15.16312391, "ECCENTRICITY": 0.00048082, "INCLINATION": 97.523, "RA_OF_ASC_NODE": 50.9689, "ARG_OF_PERICENTER": 358.4186, "MEAN_ANOMALY": 1.7031, "EPHEMERIS_TYPE": 0, "CLASSIFICATION_TYPE": "U", "NORAD_CAT_ID": 59625, "ELEMENT_SET_NO": 999, "REV_AT_EPOCH": 8768, "BSTAR": 0.00032875255, "MEAN_MOTION_DOT": 6.306e-05, "MEAN_MOTION_DDOT": 0}, "tle": {"line1": "1 59625U 24081A   25336.23989551  .00006306  00000+0  32875-3 0  9995", "line2": "2 59625  97.5230  50.9689 0004808 358.4186   1.7031 15.16312391 87680"}}, "geometry": {"type": "Point", "coordinates": [-118.80250417516542, 52.21019076034757]}}, {"type": "Feature", "properties": {"norad_id": 59626, "name": "LEGION 2", "group": "resource", "lat": -53.07159560495064, "lon": 61.598750547628775, "alt_km": 520.1372745797153, "timestamp": "2025-12-02T15:49:06.840865+00:00", "meta": {"OBJECT_NAME": "LEGION 2", "OBJECT_ID": "2024-081B", "EPOCH": "2025-12-02T04:58:06.453696", "MEAN_MOTION": 15.16324451, "ECCENTRICITY": 0.00063224, "INCLINATION": 97.5235, "RA_OF_ASC_NODE": 51.0229, "ARG_OF_PERICENTER": 336.3806, "MEAN_ANOMALY": 23.7136, "EPHEMERIS_TYPE": 0, "CLASSIFICATION_TYPE": "U", "NORAD_CAT_ID": 59626, "ELEMENT_SET_NO": 999, "REV_AT_EPOCH": 8768, "BSTAR": 0.00031524749, "MEAN_MOTION_DOT": 6.047e-05, "MEAN_MOTION_DDOT": 0}, "tle": {"line1": "1 59626U 24081B   25336.20701914  .00006047  00000+0  31525-3 0  9991", "line2": "2 59626  97.5235  51.0229 0006322 336.3806  23.7136 15.16324451 87685"}}, "geometry": {"type": "Point", "coordinates": [61.598750547628775, -53.07159560495064]}}, {"type": "Feature", "properties": {"norad_id": 60182, "name": "ALOS-4 (DAICHI-4)", "group": "resource", "lat": -41.49426809568418, "lon": -115.42635334680934, "alt_km": 638.1006204994756, "timestamp": "2025-12-02T15:49:06.840875+00:00", "meta": {"OBJECT_NAME": "ALOS-4 (DAICHI-4)", "OBJECT_ID": "2024-123A", "EPOCH": "2025-11-30T09:15:12.370176", "MEAN_MOTION": 14.79468497, "ECCENTRICITY": 0.000127, "INCLINATION": 97.9232, "RA_OF_ASC_NODE": 69.4089, "ARG_OF_PERICENTER": 105.4124, "MEAN_ANOMALY": 254.7228, "EPHEMERIS_TYPE": 0, "CLASSIFICATION_TYPE": "U", "NORAD_CAT_ID": 60182, "ELEMENT_SET_NO": 999, "REV_AT_EPOCH": 7648, "BSTAR": -8.429942e-06, "MEAN_MOTION_DOT": -1.14e-06, "MEAN_MOTION_DDOT": 0}, "tle": {"line1": "1 60182U 24123A   25334.38555984 -.00000114  00000+0 -84299-5 0  9997", "line2": "2 60182  97.9232  69.4089 0001270 105.4124 254.7228 14.79468497 76488"}}, "geometry": {"type": "Point", "coordinates": [-115.42635334680934, -41.49426809568418]}}, {"type": "Feature", "properties": {"norad_id": 60452, "name": "LEGION 3", "group": "resource", "lat": -41.85909414724581, "lon": -59.537593123373995, "alt_km": 530.7577875914294, "timestamp": "2025-12-02T15:49:06.840886+00:00", "meta": {"OBJECT_NAME": "LEGION 3", "OBJECT_ID": "2024-146A", "EPOCH": "2025-12-02T05:03:25.752672", "MEAN_MOTION": 15.15582432, "ECCENTRICITY": 0.00136695, "INCLINATION": 45.0023, "RA_OF_ASC_NODE": 6.5698, "ARG_OF_PERICENTER": 138.6974, "MEAN_ANOMALY": 221.4941, "EPHEMERIS_TYPE": 0, "CLASSIFICATION_TYPE": "U", "NORAD_CAT_ID": 60452, "ELEMENT_SET_NO": 999, "REV_AT_EPOCH": 7213, "BSTAR": 0.00033609596, "MEAN_MOTION_DOT": 6.241e-05, "MEAN_MOTION_DDOT": 0}, "tle": {"line1": "1 60452U 24146A   25336.21071473  .00006241  00000+0  33610-3 0  9996", "line2": "2 60452  45.0023   6.5698 0013669 138.6974 221.4941 15.15582432 72132"}}, "geometry": {"type": "Point", "coordinates": [-59.537593123373995, -41.85909414724581]}}]}